{"type": "FeatureCollection", "features": [{"type": "Feature", "properties": {"name": "Vuelo TGP_half"}, "geometry": {"type": "LineString", "coordinates": [[-76.12640065, -13.343475925], [-76.1277647, -13.3425801], [-76.12890354999999, -13.3414971], [-76.13031132500001, -13.340578350000001], [-76.1318613, -13.339824875], [-76.1332677, -13.33881545], [-76.13436865, -13.33801995], [-76.135868925, -13.3369937], [-76.13739902500001, -13.33616975], [-76.138657925, -13.33495135], [-76.13996915, -13.334256425], [-76.141337025, -13.333373925], [-76.1427874, -13.33243625], [-76.1442179, -13.3314391], [-76.145573325, -13.3307474], [-76.14705079999999, -13.329804375], [-76.14814645, -13.3287475], [-76.1498278, -13.327988725], [-76.15104995, -13.32698795], [-76.15247185, -13.326125], [-76.1540548, -13.325190899999999], [-76.15526615, -13.3243867], [-76.1567055, -13.32351435], [-76.1579253, -13.32249485], [-76.1594544, -13.3216359], [-76.1607187, -13.320765399999999], [-76.16218395, -13.319792150000001], [-76.1635516, -13.318821525], [-76.16506022499999, -13.31806635], [-76.166261775, -13.31700465], [-76.1677959, -13.31630505], [-76.16906595, -13.315290875], [-76.17061205, -13.314518175], [-76.17192625, -13.313498975], [-76.17314512499999, -13.312658175], [-76.17479625, -13.311898724999999], [-76.17597635, -13.31070365], [-76.177284075, -13.3099167], [-76.178697125, -13.30888195], [-76.180216625, -13.308186325], [-76.1814842, -13.307244825], [-76.182956425, -13.306232575], [-76.184131725, -13.3052577], [-76.185725475, -13.304446474999999], [-76.18701935, -13.3035576], [-76.1882724, -13.302573599999999], [-76.18890962500001, -13.3003473], [-76.19079425, -13.30060625], [-76.19238179999999, -13.2998595], [-76.193727575, -13.2992745], [-76.19545385, -13.298610775], [-76.196913425, -13.2976019], [-76.19817524999999, -13.296628675], [-76.19931455, -13.2955738], [-76.20081505, -13.2946784], [-76.20195625, -13.293539899999999], [-76.20324215, -13.29244535], [-76.20463195, -13.29086765], [-76.2058925, -13.290615], [-76.20749515, -13.289810325000001], [-76.20905965, -13.289205525], [-76.2102892, -13.2882654], [-76.21193905, -13.287562475], [-76.21339695, -13.28667835], [-76.2145254, -13.28561175], [-76.21596515, -13.284755425], [-76.217251225, -13.2837873], [-76.218519875, -13.2827981], [-76.2199007, -13.2817776], [-76.22120825, -13.2808662], [-76.222643225, -13.2799364], [-76.2238076, -13.278861775], [-76.224955, -13.27757985], [-76.226205, -13.276423274999999], [-76.2276812, -13.27576115], [-76.22891595, -13.27477065], [-76.2304329, -13.27370555], [-76.231547025, -13.272578775], [-76.232778525, -13.27151945], [-76.234215775, -13.27057925], [-76.23537535, -13.2695709], [-76.236584225, -13.2685192], [-76.238002475, -13.267579975], [-76.23932214999999, -13.26655665], [-76.24067600000001, -13.26566655], [-76.2420807, -13.264905125], [-76.2432281, -13.263756449999999], [-76.24484, -13.262846925], [-76.24609375, -13.261847249999999], [-76.2474395, -13.260857999999999], [-76.24882345, -13.2600045], [-76.25030422500001, -13.259082150000001], [-76.25160125, -13.2580731], [-76.25280285, -13.2569832], [-76.2541743, -13.25620785], [-76.255823125, -13.255351875], [-76.257037875, -13.254105475], [-76.2583756, -13.253242025], [-76.25934795, -13.25201775], [-76.26048374999999, -13.2509713], [-76.26186530000001, -13.249875724999999], [-76.26293765, -13.2486762], [-76.26424717500001, -13.24767915], [-76.2654619, -13.246415975], [-76.26657589999999, -13.24542135], [-76.2679483, -13.24479905], [-76.269391, -13.243591325], [-76.270837875, -13.24294375], [-76.272173325, -13.242], [-76.273729825, -13.241307424999999], [-76.2750913, -13.2402421], [-76.276363575, -13.2390621], [-76.277660925, -13.2381418], [-76.279138725, -13.23722055], [-76.28024482500001, -13.23618665], [-76.281314975, -13.234912675], [-76.28183415, -13.2330178], [-76.28363494999999, -13.23271115], [-76.285165275, -13.23191045], [-76.2864941, -13.2311126], [-76.28791319999999, -13.23037385], [-76.28950764999999, -13.22946345], [-76.29078565, -13.2284835], [-76.2921694, -13.227677275], [-76.2933813, -13.226336775], [-76.29476585, -13.22560215], [-76.2959043, -13.22465545], [-76.29724064999999, -13.223693675], [-76.298910675, -13.2230195], [-76.299633125, -13.221288325], [-76.30064345, -13.220182699999999], [-76.30198835, -13.219108550000001], [-76.3027902, -13.2175141], [-76.30280515, -13.215458475], [-76.30506195000001, -13.2153323], [-76.30627580000001, -13.214233775], [-76.30743385, -13.2133356], [-76.3086324, -13.2121093], [-76.3096499, -13.2107522], [-76.3110294, -13.20984685], [-76.31212612499999, -13.20872365], [-76.313822325, -13.20797475], [-76.31457520000001, -13.206902225], [-76.316267825, -13.205925650000001], [-76.31779885, -13.205256125], [-76.31930655, -13.204589200000001], [-76.32040964999999, -13.2033518], [-76.321888925, -13.202319750000001], [-76.3230817, -13.201443600000001], [-76.3238846, -13.1997541], [-76.3254282, -13.198892075], [-76.32617905000001, -13.197487474999999], [-76.3271582, -13.196328525], [-76.32846345, -13.195098699999999], [-76.32952975, -13.19390445], [-76.33098705, -13.192954775], [-76.332003025, -13.19189995], [-76.333176675, -13.190635625], [-76.3340753, -13.18961705], [-76.3359673, -13.188661275], [-76.337181, -13.187733325], [-76.33858705, -13.186939025000001], [-76.3399836, -13.185777925], [-76.34135125, -13.18502285], [-76.341015075, -13.185554400000001], [-76.34150869999999, -13.184037725], [-76.34242499999999, -13.1827132], [-76.343082325, -13.1811735], [-76.3437631, -13.1796984], [-76.344421975, -13.178134974999999], [-76.345341675, -13.176907125], [-76.3463802, -13.17558565], [-76.34745720000001, -13.174299825], [-76.34876835, -13.173189675], [-76.349798175, -13.17210245], [-76.351030325, -13.171041924999999], [-76.35210395, -13.169830000000001], [-76.35365445, -13.1687757], [-76.35455085, -13.167203375], [-76.3554287, -13.16620785], [-76.35690919999999, -13.16521295], [-76.358374775, -13.164491525], [-76.3593784, -13.16318215], [-76.3604571, -13.161968349999999], [-76.36149395000001, -13.160621475], [-76.3629891, -13.159748825000001], [-76.36263205, -13.1576329], [-76.363088775, -13.156078275], [-76.36334355, -13.154458575], [-76.364448875, -13.15315045], [-76.363755175, -13.1515023], [-76.36384615, -13.14977345], [-76.36397095000001, -13.148266], [-76.3650026, -13.145559575], [-76.36111285, -13.1447548], [-76.36384895, -13.1482527], [-76.364523325, -13.146904225], [-76.3641614, -13.147661], [-76.36525985, -13.14587525], [-76.3668494, -13.14577605], [-76.368674, -13.145457], [-76.36970905000001, -13.14431135], [-76.37114575, -13.1433963], [-76.372835675, -13.142605325], [-76.37295715, -13.14065425], [-76.37356915000001, -13.139202175], [-76.37442255, -13.13769815], [-76.374719325, -13.136251275], [-76.375716575, -13.134685600000001], [-76.3742925, -13.134102825], [-76.37579435, -13.1338783], [-76.377519725, -13.133418899999999], [-76.37913470000001, -13.1331104], [-76.380748675, -13.1328028], [-76.3823813, -13.13249615], [-76.38399165, -13.132091975], [-76.38559040000001, -13.131676875], [-76.387168025, -13.131104625], [-76.38980785, -13.1311609], [-76.387548125, -13.1320426], [-76.38714949999999, -13.12973295], [-76.38741325000001, -13.1281476], [-76.387696425, -13.126535], [-76.387943975, -13.1249912], [-76.3882553, -13.123381], [-76.38839229999999, -13.121760325], [-76.388734375, -13.120153550000001], [-76.38905425, -13.1185888], [-76.3902479, -13.11679665], [-76.39152659999999, -13.11574365], [-76.39245195000001, -13.1143808], [-76.3937552, -13.113257675], [-76.394959, -13.112138999999999], [-76.39605095, -13.110979025], [-76.39727690000001, -13.109875500000001], [-76.3984281, -13.108694400000001], [-76.399951775, -13.108148199999999], [-76.39834395, -13.108889975], [-76.398574625, -13.107401725], [-76.3983552, -13.1057155], [-76.398409275, -13.1040952], [-76.39823835, -13.102465575], [-76.39809275, -13.1008347], [-76.3979287, -13.09926915], [-76.39786185, -13.097661425], [-76.397315275, -13.0961233], [-76.39646024999999, -13.094464975000001], [-76.39681575, -13.092818000000001], [-76.39802415, -13.09131925], [-76.39643355, -13.090126775], [-76.3958079, -13.088613500000001], [-76.3950772, -13.08714255]]}}]}