{"type": "FeatureCollection", "features": [{"type": "Feature", "properties": {"name": "SF#12"}, "geometry": {"type": "Point", "coordinates": [-73.13915842920524, -12.54646922050851]}}, {"type": "Feature", "properties": {"name": "PCCH"}, "geometry": {"type": "Point", "coordinates": [-73.69804118292345, -13.05162846313714]}}, {"type": "Feature", "properties": {"name": "PS#1"}, "geometry": {"type": "Point", "coordinates": [-72.94368990763738, -11.84364595260153]}}, {"type": "Feature", "properties": {"name": "Pampa Melchorita"}, "geometry": {"type": "Point", "coordinates": [-76.28221716967829, -13.23371045901724]}}, {"type": "Feature", "properties": {"name": "SF#4"}, "geometry": {"type": "Point", "coordinates": [-75.88879618525787, -13.73964431482912]}}, {"type": "Feature", "properties": {"name": "PRS#3"}, "geometry": {"type": "Point", "coordinates": [-76.22338871438207, -13.77477766282506]}}, {"type": "Feature", "properties": {"name": "PRS#2"}, "geometry": {"type": "Point", "coordinates": [-75.54461864769173, -13.64141839301865]}}, {"type": "Feature", "properties": {"name": "SF#1"}, "geometry": {"type": "Point", "coordinates": [-74.54772758174194, -13.28529106930385]}}, {"type": "Feature", "properties": {"name": "PS#1"}, "geometry": {"type": "Point", "coordinates": [-72.94375308973125, -11.84367542358734]}}, {"type": "Feature", "properties": {"name": "PS#3"}, "geometry": {"type": "Point", "coordinates": [-73.69361732124617, -13.04831932170784]}}, {"type": "Feature", "properties": {"name": "PC Kamani"}, "geometry": {"type": "Point", "coordinates": [-73.24067494727385, -12.66379857569814]}}, {"type": "Feature", "properties": {"name": "Lurin"}, "geometry": {"type": "Point", "coordinates": [-76.83004225218778, -12.29329627026136]}}, {"type": "Feature", "properties": {"name": "SF#2"}, "geometry": {"type": "Point", "coordinates": [-74.54774465283208, -13.28519153640685]}}, {"type": "Feature", "properties": {"name": "PS#4"}, "geometry": {"type": "Point", "coordinates": [-73.79995396870672, -13.06465834832606]}}, {"type": "Feature", "properties": {"name": "Ayacucho"}, "geometry": {"type": "Point", "coordinates": [-74.18190391880955, -13.18471518941747]}}, {"type": "Feature", "properties": {"name": "SF#3"}, "geometry": {"type": "Point", "coordinates": [-75.54462611966382, -13.64142297941316]}}, {"type": "Feature", "properties": {"name": "PS#2"}, "geometry": {"type": "Point", "coordinates": [-73.13806894904737, -12.54555338246616]}}, {"type": "Feature", "properties": {"name": "PRS#1"}, "geometry": {"type": "Point", "coordinates": [-75.39261561191269, -13.64978501591617]}}, {"type": "Feature", "properties": {"name": "SF#1"}, "geometry": {"type": "Point", "coordinates": [-73.69771217232042, -13.05213373826028]}}]}